440P/Kobayashi,e,12.3415,328.8485,183.2870,8.577203,0.0392361,0.76050139,26.9571,02/15.0/2024,2000,g 15.5,4.0
# From MPEC 2022-X67
441P/PANSTARRS,e,2.5744,143.6043,178.8486,4.133933,0.1172625,0.19509592,292.8981,02/15.0/2024,2000,g 13.5,4.0
# From MPEC 2024-BE0
442P/McNaught,e,6.0581,32.0058,310.7593,4.964738,0.0890963,0.53279714,48.6055,02/15.0/2024,2000,g 13.5,4.0
# From MPEC 2023-SQ0
443P/PANSTARRS-Christensen,e,19.8883,108.9427,145.1099,4.125660,0.1176153,0.28339421,57.9756,02/15.0/2024,2000,g 13.5,4.0
# From MPEC 2023-VM5
444P/WISE-PANSTARRS,e,22.2404,88.9698,171.5369,3.438843,0.1545559,0.57056527,90.2820,02/15.0/2024,2000,g 17.0,4.0
# From MPEC 2024-BE0
445P/Lemmon-PANSTARRS,e,1.0885,126.5929,213.4072,4.051990,0.1208375,0.41400288,66.1073,02/15.0/2024,2000,g 15.0,4.0
# From MPEC 2022-WQ9
446P/McNaught,e,16.6148,336.3817,344.6809,4.565789,0.1010253,0.64679067,63.3040,02/15.0/2024,2000,g 16.5,4.0
# From MPEC 2022-YB4
447P/Sheppard-Tholen,e,7.4374,302.6407,97.7279,5.633433,0.0737131,0.17849384,40.1690,02/15.0/2024,2000,g 12.0,4.0
# From MPEC 2023-A50
448P/PANSTARRS,e,12.1505,161.7566,218.7515,3.634743,0.1422308,0.41869562,74.8809,02/15.0/2024,2000,g 16.0,4.0
# From MPEC 2022-UE6
449P/Leonard,e,15.4666,242.5402,176.7061,3.600112,0.1442879,0.47983611,169.9011,02/15.0/2024,2000,g 16.0,4.0
# From MPEC 2024-AF0
450P/LONEOS,e,10.5577,124.7853,21.3775,7.972497,0.0437837,0.31201428,313.2604,02/15.0/2024,2000,g  6.5,4.0
# From MPEC 2023-HD1
451P/Christensen,e,26.4795,300.8959,186.7226,6.343904,0.0616835,0.55887033,27.4108,02/15.0/2024,2000,g 15.5,4.0
# From MPEC 2023-J29
452P/Sheppard-Jewitt,e,6.4215,123.6865,37.0449,7.302166,0.0499490,0.42783724,14.7568,02/15.0/2024,2000,g  9.0,4.0
# From MPEC 2023-RF3
453P/WISE-Lemmon,e,27.0678,42.8960,70.8498,5.462249,0.0772053,0.58284563,26.9364,02/15.0/2024,2000,g 14.0,4.0
# From MPEC 2023-CD7
454P/PANSTARRS,e,19.8127,54.5824,20.0831,4.208282,0.1141687,0.36157053,64.9248,02/15.0/2024,2000,g 14.0,4.0
# From MPEC 2022-Y14
455P/PANSTARRS,e,14.1378,146.1842,237.5062,3.152671,0.1760703,0.30486395,62.4696,02/15.0/2024,2000,g 17.0,4.0
# From MPEC 2023-N01
456P/PANSTARRS,e,16.9660,243.1643,233.7291,3.171140,0.1745344,0.11767213,285.3075,02/15.0/2024,2000,g 13.5,4.0
# From MPEC 2023-F99
457P/Lemmon-PANSTARRS,e,5.2251,175.9728,104.3997,2.646120,0.2289759,0.11871273,317.0931,02/15.0/2024,2000,g 15.5,4.0
# From MPEC 2023-HD1
458P/Jahn,e,13.6267,1.5864,104.8325,3.857577,0.1300865,0.31709661,61.4896,02/15.0/2024,2000,g 17.3,4.0
# From MPEC 2023-UR6
459P/Catalina,e,7.1727,256.9904,205.2001,3.239703,0.1690232,0.57769303,60.6080,02/15.0/2024,2000,g 15.5,4.0
# From MPEC 2023-G14
460P/PANSTARRS,e,18.8955,180.5151,351.9543,3.027088,0.1871399,0.66401767,182.2067,02/15.0/2024,2000,g 21.0,4.0
# From MPEC 2023-J95
461P/WISE,e,18.4100,194.3782,174.8265,3.143257,0.1768619,0.57011857,152.6520,02/15.0/2024,2000,g 18.5,4.0
# From MPEC 2024-BE0
462P/LONEOS-PANSTARRS,e,7.0271,322.7838,4.3751,4.877808,0.0914886,0.57822741,51.4245,02/15.0/2024,2000,g 17.0,4.0
# From MPEC 2023-XP6
463P/NEOWISE,e,29.2846,283.2096,216.3576,2.974501,0.1921245,0.82560540,61.9346,02/15.0/2024,2000,g 18.0,4.0
# From MPEC 2023-RF3
464P/PANSTARRS,e,21.6664,309.5808,267.6522,4.686855,0.0971363,0.28051569,34.2061,02/15.0/2024,2000,g 10.5,4.0
# From MPEC 2024-AF0
465P/Hill,e,25.8707,218.0094,141.1544,6.032745,0.0665168,0.61403188,18.7126,02/15.0/2024,2000,g 12.5,4.0
# From MPEC 2023-VM5
466P/PANSTARRS,e,12.2355,119.8188,196.8064,4.047200,0.1210520,0.46755888,34.7569,02/15.0/2024,2000,g 14.0,4.0
# From MPEC 2023-T65
467P/LINEAR-Grauer,e,2.4789,43.2704,267.8390,5.831289,0.0699934,0.05534426,30.8213,02/15.0/2024,2000,g  9.0,4.0
# From MPEC 2023-XP6
468P/SidingSpring,e,50.4462,356.1240,322.5632,7.123382,0.0518412,0.44550421,4.4527,02/15.0/2024,2000,g 11.5,4.0
# From MPEC 2023-P35
469P/PANSTARRS,e,20.1741,178.9654,43.5292,4.340000,0.1090108,0.30752847,287.7585,02/15.0/2024,2000,g 13.5,4.0
# From MPEC 2024-AF0
470P/PANSTARRS,e,8.8415,246.1749,151.9988,4.476922,0.1040482,0.39051013,6.1367,02/15.0/2024,2000,g 15.5,4.0
# From MPEC 2024-C04
471P/,e,4.7909,283.3294,94.9696,5.710657,0.0722229,0.62819947,4.0963,02/15.0/2024,2000,g 12.0,4.0
# From MPEC 2024-BE0
472P/NEAT-LINEAR,e,10.8523,206.0405,219.1080,7.815919,0.0451060,0.56645196,353.1181,02/15.0/2024,2000,g 10.5,4.0
# From MPC107687
1I/`Oumuamua,h,09/09.4886/2017,122.6778,24.5997,241.6845,1.199252,0.255240,2000,23.0,2.0
# From MPEC 2023-L37
2I/Borisov,h,12/08.5548/2019,44.0527,308.1480,209.1251,3.356633,2.006548,2000,11.0,4.0
